ION SCV-004             
1 50993U 22002K   26068.68892644  .00006538  00000+0  23198-3 0  9998
2 50993  97.2961 128.2294 0007216   1.6783 358.4480 15.29369331230088
STARLINK-31698          
1 59379U 24062F   26068.83241588 -.00000065  00000+0  99193-5 0  9995
2 59379  53.1603 254.9886 0001257  88.3549 271.7596 15.30183968109659
